PROGRESS-MS 32          
1 65586U 25204A   25321.90043553  .00014804  00000+0  26899-3 0  9998
2 65586  51.6331 265.4223 0004180  82.0364 278.1099 15.49772275   275
CYGNUS NG-23            
1 65616U 25208A   25321.90043553  .00014804  00000+0  26899-3 0  9996
2 65616  51.6331 265.4223 0004180  82.0364 278.1099 15.49772275   224
DRAGONFLY               
1 65729U 98067XH  25322.06784337  .00120116  00000+0  12275-2 0  9990
2 65729  51.6305 261.2981 0005128 140.2196 219.9175 15.64137736  9296
1998-067XJ              
1 65730U 98067XJ  25322.10052651  .00568320  00000+0  25348-2 0  9992
2 65730  51.6231 258.4854 0011841 139.6096 220.5788 15.82118198  9337
1998-067XK              
1 65731U 98067XK  25322.05568359  .00080151  00000+0  93893-3 0  9996
2 65731  51.6317 261.9663 0005940 119.8279 240.3305 15.60805960  9281
RSP-03                  
1 65732U 98067XL  25322.09450133  .00100833  00000+0  11057-2 0  9992
2 65732  51.6299 261.4708 0006644 121.8909 238.2732 15.62410883  9302
GHS-01                  
1 65733U 98067XM  25322.04964015  .00139401  00000+0  13510-2 0  9996
2 65733  51.6302 261.1742 0006014 142.2508 217.8910 15.65393457  9307
YOTSUBA-KULOVER         
1 65941U 98067XN  25322.13814133  .00066140  00000+0  93964-3 0  9993
2 65941  51.6310 263.2613 0002478  89.2558 270.8718 15.55773352  6028
BOTAN                   
1 65942U 98067XP  25322.05464742  .00088033  00000+0  11672-2 0  9992
2 65942  51.6309 263.4546 0004688  96.6603 263.4923 15.57503266  6014
E-KAGAKU-1              
1 65943U 98067XQ  25322.13775449  .00063641  00000+0  90517-3 0  9995
2 65943  51.6318 263.2607 0004114  78.5664 281.5789 15.55753809  6021
HRC MONOBLOCK CAMERA    
1 66052U 98067XR  25322.07033591  .00038002  00000+0  62331-3 0  9991
2 66052  51.6317 264.3061 0004774  84.7035 275.4499 15.52052951  5005
HTV-X1                  
1 66174U 25241A   25321.90043553  .00014804  00000+0  26899-3 0  9993
2 66174  51.6331 265.4223 0004180  82.0364 278.1099 15.49772275  1450
